[{"OBJECT_NAME":"IRIDIUM 143","OBJECT_ID":"2018-030K","EPOCH":"2026-03-09T17:00:55.388160","MEAN_MOTION":14.34218064,"ECCENTRICITY":0.00020577,"INCLINATION":86.4015,"RA_OF_ASC_NODE":332.16,"ARG_OF_PERICENTER":91.1443,"MEAN_ANOMALY":268.9989,"EPHEMERIS_TYPE":0,"CLASSIFICATION_TYPE":"U","NORAD_CAT_ID":43258,"ELEMENT_SET_NO":999,"REV_AT_EPOCH":41583,"BSTAR":2.1067696e-5,"MEAN_MOTION_DOT":7.9e-7,"MEAN_MOTION_DDOT":0},{"OBJECT_NAME":"PSLV DEB","OBJECT_ID":"2001-049QL","EPOCH":"2026-03-07T09:43:04.908288","MEAN_MOTION":13.78422059,"ECCENTRICITY":0.04068055,"INCLINATION":98.6546,"RA_OF_ASC_NODE":130.8442,"ARG_OF_PERICENTER":266.7117,"MEAN_ANOMALY":88.7433,"EPHEMERIS_TYPE":0,"CLASSIFICATION_TYPE":"U","NORAD_CAT_ID":35536,"ELEMENT_SET_NO":999,"REV_AT_EPOCH":13288,"BSTAR":0.00066983344,"MEAN_MOTION_DOT":1.213e-5,"MEAN_MOTION_DDOT":0}]
